start=new Date('2023-02-20T00:00:00.000Z').valueOf();
sats=[{"MEAN_ANOMALY":"269.2117","BSTAR":"0.00143060000000","TIME_SYSTEM":"UTC","ARG_OF_PERICENTER":"90.9036","MEAN_MOTION":"15.06429530","LAUNCH_DATE":"2021-05-26","EPOCH":"2023-02-19T10:34:54.005376","REV_AT_EPOCH":"9639","PERIAPSIS":"546.134","ELEMENT_SET_NO":"999","MEAN_MOTION_DOT":"0.00021108","PERIOD":"95.590","RA_OF_ASC_NODE":"38.6781","OBJECT_ID":"2021-044BF","GP_ID":"226045864","OBJECT_TYPE":"PAYLOAD","TLE_LINE1":"1 48691U 21044BF  23050.44090284  .00021108  00000-0  14306-2 0  9998","DECAY_DATE":null,"TLE_LINE2":"2 48691  53.0535  38.6781 0001428  90.9036 269.2117 15.06429530 96396","OBJECT_NAME":"STARLINK-2750","MEAN_ELEMENT_THEORY":"SGP4","INCLINATION":"53.0535","CENTER_NAME":"EARTH","SITE":"AFETR","SEMIMAJOR_AXIS":"6925.258","CLASSIFICATION_TYPE":"U","COUNTRY_CODE":"US","MEAN_MOTION_DDOT":"0.0000000000000","APOAPSIS":"548.112","ECCENTRICITY":"0.00014280","EPHEMERIS_TYPE":"0","REF_FRAME":"TEME","NORAD_CAT_ID":"48691","FILE":"3811610","RCS_SIZE":"LARGE"},{"REF_FRAME":"TEME","NORAD_CAT_ID":"48692","FILE":"3813064","RCS_SIZE":"LARGE","EPHEMERIS_TYPE":"0","ECCENTRICITY":"0.00022770","APOAPSIS":"548.803","MEAN_MOTION_DDOT":"0.0000000000000","COUNTRY_CODE":"US","CLASSIFICATION_TYPE":"U","SEMIMAJOR_AXIS":"6925.361","SITE":"AFETR","CENTER_NAME":"EARTH","OBJECT_NAME":"STARLINK-2752","INCLINATION":"53.0528","MEAN_ELEMENT_THEORY":"SGP4","DECAY_DATE":null,"TLE_LINE2":"2 48692  53.0528  37.6815 0002277  92.5518 267.5732 15.06396000 97279","OBJECT_TYPE":"PAYLOAD","TLE_LINE1":"1 48692U 21044BG  23050.69157114  .00001958  00000-0  15033-3 0  9992","GP_ID":"226079069","OBJECT_ID":"2021-044BG","RA_OF_ASC_NODE":"37.6815","PERIOD":"95.592","PERIAPSIS":"545.649","ELEMENT_SET_NO":"999","REV_AT_EPOCH":"9727","MEAN_MOTION_DOT":"0.00001958","LAUNCH_DATE":"2021-05-26","EPOCH":"2023-02-19T16:35:51.746496","MEAN_MOTION":"15.06396000","ARG_OF_PERICENTER":"92.5518","TIME_SYSTEM":"UTC","MEAN_ANOMALY":"267.5732","BSTAR":"0.00015033000000"},{"SITE":"AFETR","CENTER_NAME":"EARTH","SEMIMAJOR_AXIS":"6925.437","CLASSIFICATION_TYPE":"U","TLE_LINE1":"1 48693U 21044BH  23050.69937473  .00023211  00000-0  15732-2 0  9998","OBJECT_TYPE":"PAYLOAD","TLE_LINE2":"2 48693  53.0528  42.5133 0001526 112.2015 247.9135 15.06371013 97205","DECAY_DATE":null,"INCLINATION":"53.0528","MEAN_ELEMENT_THEORY":"SGP4","OBJECT_NAME":"STARLINK-2618","APOAPSIS":"548.359","ECCENTRICITY":"0.00015260","EPHEMERIS_TYPE":"0","FILE":"3812624","RCS_SIZE":"LARGE","REF_FRAME":"TEME","NORAD_CAT_ID":"48693","COUNTRY_CODE":"US","MEAN_MOTION_DDOT":"0.0000000000000","ARG_OF_PERICENTER":"112.2015","MEAN_MOTION":"15.06371013","EPOCH":"2023-02-19T16:47:05.976672","LAUNCH_DATE":"2021-05-26","BSTAR":"0.00157320000000","MEAN_ANOMALY":"247.9135","TIME_SYSTEM":"UTC","GP_ID":"226069646","MEAN_MOTION_DOT":"0.00023211","PERIAPSIS":"546.246","REV_AT_EPOCH":"9720","ELEMENT_SET_NO":"999","PERIOD":"95.594","RA_OF_ASC_NODE":"42.5133","OBJECT_ID":"2021-044BH"},{"CENTER_NAME":"EARTH","SITE":"AFETR","SEMIMAJOR_AXIS":"6925.381","CLASSIFICATION_TYPE":"U","TLE_LINE1":"1 48694U 21044BJ  23050.99930953 -.00003560  00000-0 -22028-3 0  9992","OBJECT_TYPE":"PAYLOAD","DECAY_DATE":null,"TLE_LINE2":"2 48694  53.0526  46.1660 0001538  97.7014 262.4149 15.06389306 97175","OBJECT_NAME":"STARLINK-2748","MEAN_ELEMENT_THEORY":"SGP4","INCLINATION":"53.0526","APOAPSIS":"548.311","ECCENTRICITY":"0.00015380","EPHEMERIS_TYPE":"0","REF_FRAME":"TEME","NORAD_CAT_ID":"48694","RCS_SIZE":"LARGE","FILE":"3813059","COUNTRY_CODE":"US","MEAN_MOTION_DDOT":"0.0000000000000","ARG_OF_PERICENTER":"97.7014","MEAN_MOTION":"15.06389306","LAUNCH_DATE":"2021-05-26","EPOCH":"2023-02-19T23:59:00.343392","MEAN_ANOMALY":"262.4149","BSTAR":"-0.00022028000000","TIME_SYSTEM":"UTC","GP_ID":"226079030","REV_AT_EPOCH":"9717","PERIAPSIS":"546.181","ELEMENT_SET_NO":"999","MEAN_MOTION_DOT":"-0.00003560","RA_OF_ASC_NODE":"46.1660","PERIOD":"95.593","OBJECT_ID":"2021-044BJ"},{"TLE_LINE1":"1 48695U 21044BK  23050.69063950 -.00000741  00000-0 -30864-4 0  9990","OBJECT_TYPE":"PAYLOAD","DECAY_DATE":null,"TLE_LINE2":"2 48695  53.0519  47.6092 0001285  87.7571 272.3565 15.06402887 97193","OBJECT_NAME":"STARLINK-2616","MEAN_ELEMENT_THEORY":"SGP4","INCLINATION":"53.0519","SITE":"AFETR","CENTER_NAME":"EARTH","SEMIMAJOR_AXIS":"6925.340","CLASSIFICATION_TYPE":"U","COUNTRY_CODE":"US","MEAN_MOTION_DDOT":"0.0000000000000","APOAPSIS":"548.095","ECCENTRICITY":"0.00012850","EPHEMERIS_TYPE":"0","NORAD_CAT_ID":"48695","REF_FRAME":"TEME","RCS_SIZE":"LARGE","FILE":"3812705","MEAN_ANOMALY":"272.3565","BSTAR":"-0.00003086400000","TIME_SYSTEM":"UTC","ARG_OF_PERICENTER":"87.7571","MEAN_MOTION":"15.06402887","LAUNCH_DATE":"2021-05-26","EPOCH":"2023-02-19T16:34:31.252800","PERIAPSIS":"546.315","REV_AT_EPOCH":"9719","ELEMENT_SET_NO":"999","MEAN_MOTION_DOT":"-0.00000741","RA_OF_ASC_NODE":"47.6092","PERIOD":"95.592","OBJECT_ID":"2021-044BK","GP_ID":"226071243"},{"GP_ID":"226045614","MEAN_MOTION_DOT":"0.00011537","ELEMENT_SET_NO":"999","PERIAPSIS":"546.376","REV_AT_EPOCH":"9616","OBJECT_ID":"2021-044BL","RA_OF_ASC_NODE":"54.4387","PERIOD":"95.591","ARG_OF_PERICENTER":"98.1462","EPOCH":"2023-02-19T06:47:20.851872","LAUNCH_DATE":"2021-05-26","MEAN_MOTION":"15.06416038","BSTAR":"0.00079178000000","MEAN_ANOMALY":"261.9657","TIME_SYSTEM":"UTC","ECCENTRICITY":"0.00011380","APOAPSIS":"547.953","FILE":"3811610","RCS_SIZE":"LARGE","REF_FRAME":"TEME","NORAD_CAT_ID":"48696","EPHEMERIS_TYPE":"0","MEAN_MOTION_DDOT":"0.0000000000000","COUNTRY_CODE":"US","SITE":"AFETR","CENTER_NAME":"EARTH","CLASSIFICATION_TYPE":"U","SEMIMAJOR_AXIS":"6925.299","TLE_LINE2":"2 48696  53.0527  54.4387 0001138  98.1462 261.9657 15.06416038 96163","DECAY_DATE":null,"TLE_LINE1":"1 48696U 21044BL  23050.28288023  .00011537  00000-0  79178-3 0  9999","OBJECT_TYPE":"PAYLOAD","INCLINATION":"53.0527","MEAN_ELEMENT_THEORY":"SGP4","OBJECT_NAME":"STARLINK-2753"},{"CENTER_NAME":"EARTH","SITE":"AFETR","SEMIMAJOR_AXIS":"6925.316","CLASSIFICATION_TYPE":"U","OBJECT_TYPE":"PAYLOAD","TLE_LINE1":"1 48697U 21044BM  23050.44505502  .00007688  00000-0  53432-3 0  9999","DECAY_DATE":null,"TLE_LINE2":"2 48697  53.0538  53.6728 0001570  91.8229 268.2940 15.06410636 97026","OBJECT_NAME":"STARLINK-2715","MEAN_ELEMENT_THEORY":"SGP4","INCLINATION":"53.0538","APOAPSIS":"548.268","ECCENTRICITY":"0.00015700","EPHEMERIS_TYPE":"0","REF_FRAME":"TEME","NORAD_CAT_ID":"48697","RCS_SIZE":"LARGE","FILE":"3812816","COUNTRY_CODE":"US","MEAN_MOTION_DDOT":"0.0000000000000","ARG_OF_PERICENTER":"91.8229","MEAN_MOTION":"15.06410636","LAUNCH_DATE":"2021-05-26","EPOCH":"2023-02-19T10:40:52.753728","MEAN_ANOMALY":"268.2940","BSTAR":"0.00053432000000","TIME_SYSTEM":"UTC","GP_ID":"226073596","PERIAPSIS":"546.094","ELEMENT_SET_NO":"999","REV_AT_EPOCH":"9702","MEAN_MOTION_DOT":"0.00007688","RA_OF_ASC_NODE":"53.6728","PERIOD":"95.591","OBJECT_ID":"2021-044BM"},{"OBJECT_NAME":"STARLINK-3003","MEAN_ELEMENT_THEORY":"SGP4","INCLINATION":"97.5137","DECAY_DATE":null,"TLE_LINE2":"2 48879  97.5137 178.9310 0001302 118.1254 242.0103 15.02097437 91669","OBJECT_TYPE":"PAYLOAD","TLE_LINE1":"1 48879U 21059A   23050.83199059  .00003141  00000-0  24349-3 0  9991","CLASSIFICATION_TYPE":"U","SEMIMAJOR_AXIS":"6938.567","CENTER_NAME":"EARTH","SITE":"AFETR","MEAN_MOTION_DDOT":"0.0000000000000","COUNTRY_CODE":"US","NORAD_CAT_ID":"48879","REF_FRAME":"TEME","RCS_SIZE":"LARGE","FILE":"3811760","EPHEMERIS_TYPE":"0","ECCENTRICITY":"0.00013020","APOAPSIS":"561.335","TIME_SYSTEM":"UTC","MEAN_ANOMALY":"242.0103","BSTAR":"0.00024349000000","LAUNCH_DATE":"2021-06-30","EPOCH":"2023-02-19T19:58:03.986976","MEAN_MOTION":"15.02097437","ARG_OF_PERICENTER":"118.1254","OBJECT_ID":"2021-059A","PERIOD":"95.866","RA_OF_ASC_NODE":"178.9310","PERIAPSIS":"559.528","REV_AT_EPOCH":"9166","ELEMENT_SET_NO":"999","MEAN_MOTION_DOT":"0.00003141","GP_ID":"226052732"},{"MEAN_MOTION_DDOT":"0.0000000000000","COUNTRY_CODE":"US","REF_FRAME":"TEME","NORAD_CAT_ID":"48880","RCS_SIZE":"LARGE","FILE":"3811610","EPHEMERIS_TYPE":"0","ECCENTRICITY":"0.00018560","APOAPSIS":"561.793","OBJECT_NAME":"STARLINK-3004","MEAN_ELEMENT_THEORY":"SGP4","INCLINATION":"97.5153","DECAY_DATE":null,"TLE_LINE2":"2 48880  97.5153 178.7355 0001856 112.8334 247.3087 15.02073498 91648","OBJECT_TYPE":"PAYLOAD","TLE_LINE1":"1 48880U 21059B   23050.63042969  .00006047  00000-0  46483-3 0  9999","CLASSIFICATION_TYPE":"U","SEMIMAJOR_AXIS":"6938.640","CENTER_NAME":"EARTH","SITE":"AFETR","OBJECT_ID":"2021-059B","RA_OF_ASC_NODE":"178.7355","PERIOD":"95.867","REV_AT_EPOCH":"9164","PERIAPSIS":"559.218","ELEMENT_SET_NO":"999","MEAN_MOTION_DOT":"0.00006047","GP_ID":"226044383","TIME_SYSTEM":"UTC","MEAN_ANOMALY":"247.3087","BSTAR":"0.00046483000000","LAUNCH_DATE":"2021-06-30","EPOCH":"2023-02-19T15:07:49.125216","MEAN_MOTION":"15.02073498","ARG_OF_PERICENTER":"112.8334"},{"GP_ID":"226055053","MEAN_MOTION_DOT":"0.00008953","ELEMENT_SET_NO":"999","PERIAPSIS":"560.022","REV_AT_EPOCH":"9167","OBJECT_ID":"2021-059C","RA_OF_ASC_NODE":"178.9567","PERIOD":"95.866","ARG_OF_PERICENTER":"89.4196","EPOCH":"2023-02-19T19:49:27.384960","LAUNCH_DATE":"2021-06-30","MEAN_MOTION":"15.02101640","BSTAR":"0.00068538000000","MEAN_ANOMALY":"270.7095","TIME_SYSTEM":"UTC","ECCENTRICITY":"0.00005720","APOAPSIS":"560.816","RCS_SIZE":"LARGE","FILE":"3811842","NORAD_CAT_ID":"48881","REF_FRAME":"TEME","EPHEMERIS_TYPE":"0","MEAN_MOTION_DDOT":"0.0000000000000","COUNTRY_CODE":"US","SITE":"AFETR","CENTER_NAME":"EARTH","CLASSIFICATION_TYPE":"U","SEMIMAJOR_AXIS":"6938.554","TLE_LINE2":"2 48881  97.5148 178.9567 0000572  89.4196 270.7095 15.02101640 91672","DECAY_DATE":null,"OBJECT_TYPE":"PAYLOAD","TLE_LINE1":"1 48881U 21059C   23050.82601140  .00008953  00000-0  68538-3 0  9996","INCLINATION":"97.5148","MEAN_ELEMENT_THEORY":"SGP4","OBJECT_NAME":"STARLINK-3005"}];
